{
  "name": "SATGUS",
  "line1": "1 62713U 25009DJ  25304.17434020  .00010535  00000+0  91314-3 0  9994",
  "line2": "2 62713  97.7257  22.7682 0002975 146.1717 213.9695 14.97275621 43247",
  "fetched_at": "2025-11-01T00:20:22.258334+00:00"
}